start=new Date('2022-01-17T00:00:00.000Z').valueOf();
sats=[{"MEAN_MOTION_DDOT":"0.0000000000000","MEAN_MOTION_DOT":"0.00002163","EPOCH":"2022-01-16T06:47:43.947456","REV_AT_EPOCH":"7978","NORAD_CAT_ID":"46158","BSTAR":"0.00016407000000","OBJECT_ID":"2020-057AT","ECCENTRICITY":"0.00022820","SEMIMAJOR_AXIS":"6925.327","PERIOD":"95.592","MEAN_MOTION":"15.06406943","CLASSIFICATION_TYPE":"U","GP_ID":"193983396","OBJECT_NAME":"STARLINK-1589","CENTER_NAME":"EARTH","RA_OF_ASC_NODE":"230.5686","MEAN_ELEMENT_THEORY":"SGP4","REF_FRAME":"TEME","LAUNCH_DATE":"2020-08-18","RCS_SIZE":"LARGE","TLE_LINE2":"2 46158  53.0543 230.5686 0002282  76.3127 283.8115 15.06406943 79783","APOAPSIS":"548.773","DECAY_DATE":null,"TLE_LINE1":"1 46158U 20057AT  22016.28314754  .00002163  00000-0  16407-3 0  9996","INCLINATION":"53.0543","OBJECT_TYPE":"PAYLOAD","MEAN_ANOMALY":"283.8115","COUNTRY_CODE":"US","SITE":"AFETR","FILE":"3274671","EPHEMERIS_TYPE":"0","TIME_SYSTEM":"UTC","PERIAPSIS":"545.612","ELEMENT_SET_NO":"999","ARG_OF_PERICENTER":"76.3127"},{"RA_OF_ASC_NODE":"270.0918","MEAN_ELEMENT_THEORY":"SGP4","REF_FRAME":"TEME","LAUNCH_DATE":"2020-08-18","RCS_SIZE":"LARGE","APOAPSIS":"548.555","TLE_LINE2":"2 46159  53.0534 270.0918 0002034  71.9749 288.1462 15.06421878 79234","DECAY_DATE":null,"MEAN_MOTION_DOT":"0.00004428","MEAN_MOTION_DDOT":"0.0000000000000","EPOCH":"2022-01-16T09:21:38.124576","NORAD_CAT_ID":"46159","REV_AT_EPOCH":"7923","BSTAR":"0.00031583000000","ECCENTRICITY":"0.00020340","OBJECT_ID":"2020-057AU","PERIOD":"95.591","SEMIMAJOR_AXIS":"6925.282","MEAN_MOTION":"15.06421878","CLASSIFICATION_TYPE":"U","GP_ID":"193984143","OBJECT_NAME":"STARLINK-1595","CENTER_NAME":"EARTH","PERIAPSIS":"545.738","TIME_SYSTEM":"UTC","ELEMENT_SET_NO":"999","ARG_OF_PERICENTER":"71.9749","TLE_LINE1":"1 46159U 20057AU  22016.39002459  .00004428  00000-0  31583-3 0  9993","INCLINATION":"53.0534","MEAN_ANOMALY":"288.1462","OBJECT_TYPE":"PAYLOAD","COUNTRY_CODE":"US","FILE":"3274671","SITE":"AFETR","EPHEMERIS_TYPE":"0"},{"RCS_SIZE":"LARGE","APOAPSIS":"548.874","TLE_LINE2":"2 46160  53.0538 250.1234 0002457  66.0948 294.0298 15.06413304 79503","DECAY_DATE":null,"RA_OF_ASC_NODE":"250.1234","MEAN_ELEMENT_THEORY":"SGP4","REF_FRAME":"TEME","LAUNCH_DATE":"2020-08-18","BSTAR":"0.00012367000000","ECCENTRICITY":"0.00024570","OBJECT_ID":"2020-057AV","PERIOD":"95.591","SEMIMAJOR_AXIS":"6925.308","MEAN_MOTION":"15.06413304","CLASSIFICATION_TYPE":"U","GP_ID":"193982395","OBJECT_NAME":"STARLINK-1598","CENTER_NAME":"EARTH","MEAN_MOTION_DDOT":"0.0000000000000","MEAN_MOTION_DOT":"0.00001561","EPOCH":"2022-01-16T09:08:22.670016","NORAD_CAT_ID":"46160","REV_AT_EPOCH":"7950","ARG_OF_PERICENTER":"66.0948","PERIAPSIS":"545.471","TIME_SYSTEM":"UTC","ELEMENT_SET_NO":"999","MEAN_ANOMALY":"294.0298","OBJECT_TYPE":"PAYLOAD","COUNTRY_CODE":"US","FILE":"3274671","EPHEMERIS_TYPE":"0","SITE":"AFETR","TLE_LINE1":"1 46160U 20057AV  22016.38081794  .00001561  00000-0  12367-3 0  9997","INCLINATION":"53.0538"},{"EPOCH":"2022-01-16T08:36:34.922592","MEAN_MOTION_DOT":"0.00005550","MEAN_MOTION_DDOT":"0.0000000000000","REV_AT_EPOCH":"7950","NORAD_CAT_ID":"46161","CLASSIFICATION_TYPE":"U","BSTAR":"0.00039107000000","ECCENTRICITY":"0.00022410","OBJECT_ID":"2020-057AW","PERIOD":"95.591","SEMIMAJOR_AXIS":"6925.304","MEAN_MOTION":"15.06414674","CENTER_NAME":"EARTH","GP_ID":"193982645","OBJECT_NAME":"STARLINK-1600","RA_OF_ASC_NODE":"250.2220","MEAN_ELEMENT_THEORY":"SGP4","LAUNCH_DATE":"2020-08-18","REF_FRAME":"TEME","RCS_SIZE":"LARGE","DECAY_DATE":null,"TLE_LINE2":"2 46161  53.0531 250.2220 0002241  72.0211 288.1022 15.06414674 79504","APOAPSIS":"548.721","INCLINATION":"53.0531","TLE_LINE1":"1 46161U 20057AW  22016.35873753  .00005550  00000-0  39107-3 0  9992","MEAN_ANOMALY":"288.1022","OBJECT_TYPE":"PAYLOAD","COUNTRY_CODE":"US","FILE":"3274671","SITE":"AFETR","EPHEMERIS_TYPE":"0","ELEMENT_SET_NO":"999","TIME_SYSTEM":"UTC","PERIAPSIS":"545.617","ARG_OF_PERICENTER":"72.0211"},{"GP_ID":"193983896","OBJECT_NAME":"STARLINK-1603","CENTER_NAME":"EARTH","BSTAR":"0.00013131000000","OBJECT_ID":"2020-057AX","ECCENTRICITY":"0.00023570","SEMIMAJOR_AXIS":"6925.331","PERIOD":"95.592","MEAN_MOTION":"15.06405583","CLASSIFICATION_TYPE":"U","REV_AT_EPOCH":"7951","NORAD_CAT_ID":"46162","MEAN_MOTION_DDOT":"0.0000000000000","MEAN_MOTION_DOT":"0.00001675","EPOCH":"2022-01-16T08:41:50.768160","TLE_LINE2":"2 46162  53.0528 250.2014 0002357  69.1030 291.0211 15.06405583 79519","APOAPSIS":"548.829","DECAY_DATE":null,"RCS_SIZE":"LARGE","REF_FRAME":"TEME","LAUNCH_DATE":"2020-08-18","RA_OF_ASC_NODE":"250.2014","MEAN_ELEMENT_THEORY":"SGP4","EPHEMERIS_TYPE":"0","FILE":"3274671","SITE":"AFETR","MEAN_ANOMALY":"291.0211","OBJECT_TYPE":"PAYLOAD","COUNTRY_CODE":"US","TLE_LINE1":"1 46162U 20057AX  22016.36239315  .00001675  00000-0  13131-3 0  9997","INCLINATION":"53.0528","ARG_OF_PERICENTER":"69.1030","TIME_SYSTEM":"UTC","PERIAPSIS":"545.564","ELEMENT_SET_NO":"999"},{"EPHEMERIS_TYPE":"0","FILE":"3274721","SITE":"AFETR","COUNTRY_CODE":"US","OBJECT_TYPE":"PAYLOAD","MEAN_ANOMALY":"273.6645","INCLINATION":"53.0532","TLE_LINE1":"1 46163U 20057AY  22016.82498425 -.00000540  00000-0 -17334-4 0  9990","ARG_OF_PERICENTER":"86.4598","ELEMENT_SET_NO":"999","PERIAPSIS":"545.661","TIME_SYSTEM":"UTC","CENTER_NAME":"EARTH","OBJECT_NAME":"STARLINK-1610","GP_ID":"193988879","CLASSIFICATION_TYPE":"U","SEMIMAJOR_AXIS":"6925.331","PERIOD":"95.592","MEAN_MOTION":"15.06405613","OBJECT_ID":"2020-057AY","BSTAR":"-0.00001733400000","ECCENTRICITY":"0.00022170","NORAD_CAT_ID":"46163","REV_AT_EPOCH":"7926","EPOCH":"2022-01-16T19:47:58.639200","MEAN_MOTION_DDOT":"0.0000000000000","MEAN_MOTION_DOT":"-0.00000540","DECAY_DATE":null,"APOAPSIS":"548.732","TLE_LINE2":"2 46163  53.0532 228.1383 0002217  86.4598 273.6645 15.06405613 79267","RCS_SIZE":"LARGE","LAUNCH_DATE":"2020-08-18","REF_FRAME":"TEME","MEAN_ELEMENT_THEORY":"SGP4","RA_OF_ASC_NODE":"228.1383"},{"TLE_LINE1":"1 46164U 20057AZ  22016.82130203  .00000538  00000-0  55063-4 0  9994","INCLINATION":"53.0532","COUNTRY_CODE":"US","OBJECT_TYPE":"PAYLOAD","MEAN_ANOMALY":"287.3220","SITE":"AFETR","FILE":"3274753","EPHEMERIS_TYPE":"0","PERIAPSIS":"545.481","TIME_SYSTEM":"UTC","ELEMENT_SET_NO":"999","ARG_OF_PERICENTER":"72.8041","MEAN_MOTION_DDOT":"0.0000000000000","MEAN_MOTION_DOT":"0.00000538","EPOCH":"2022-01-16T19:42:40.495392","NORAD_CAT_ID":"46164","REV_AT_EPOCH":"7926","SEMIMAJOR_AXIS":"6925.337","PERIOD":"95.592","MEAN_MOTION":"15.06403860","ECCENTRICITY":"0.00024850","BSTAR":"0.00005506300000","OBJECT_ID":"2020-057AZ","CLASSIFICATION_TYPE":"U","OBJECT_NAME":"STARLINK-1612","GP_ID":"193989423","CENTER_NAME":"EARTH","MEAN_ELEMENT_THEORY":"SGP4","RA_OF_ASC_NODE":"228.1510","REF_FRAME":"TEME","LAUNCH_DATE":"2020-08-18","RCS_SIZE":"LARGE","TLE_LINE2":"2 46164  53.0532 228.1510 0002485  72.8041 287.3220 15.06403860 79262","APOAPSIS":"548.923","DECAY_DATE":null},{"RA_OF_ASC_NODE":"269.8076","MEAN_ELEMENT_THEORY":"SGP4","REF_FRAME":"TEME","LAUNCH_DATE":"2020-08-18","RCS_SIZE":"LARGE","TLE_LINE2":"2 46165  53.0519 269.8076 0002769  94.5983 265.5323 15.07256131 77985","APOAPSIS":"546.508","DECAY_DATE":null,"MEAN_MOTION_DOT":"0.00014482","MEAN_MOTION_DDOT":"0.0000000000000","EPOCH":"2022-01-16T10:07:28.462080","REV_AT_EPOCH":"7798","NORAD_CAT_ID":"46165","OBJECT_ID":"2020-057BA","BSTAR":"0.00096661000000","ECCENTRICITY":"0.00027690","PERIOD":"95.538","SEMIMAJOR_AXIS":"6922.726","MEAN_MOTION":"15.07256131","CLASSIFICATION_TYPE":"U","GP_ID":"193983145","OBJECT_NAME":"STARLINK-1613","CENTER_NAME":"EARTH","PERIAPSIS":"542.674","TIME_SYSTEM":"UTC","ELEMENT_SET_NO":"999","ARG_OF_PERICENTER":"94.5983","TLE_LINE1":"1 46165U 20057BA  22016.42185720  .00014482  00000-0  96661-3 0  9996","INCLINATION":"53.0519","MEAN_ANOMALY":"265.5323","OBJECT_TYPE":"PAYLOAD","COUNTRY_CODE":"US","FILE":"3274671","SITE":"AFETR","EPHEMERIS_TYPE":"0"},{"TIME_SYSTEM":"UTC","PERIAPSIS":"545.844","ELEMENT_SET_NO":"999","ARG_OF_PERICENTER":"68.6726","TLE_LINE1":"1 46166U 20057BB  22016.80653713  .00001817  00000-0  14083-3 0  9997","INCLINATION":"53.0537","OBJECT_TYPE":"PAYLOAD","MEAN_ANOMALY":"291.4469","COUNTRY_CODE":"US","SITE":"AFETR","FILE":"3274753","EPHEMERIS_TYPE":"0","RA_OF_ASC_NODE":"268.2094","MEAN_ELEMENT_THEORY":"SGP4","REF_FRAME":"TEME","LAUNCH_DATE":"2020-08-18","RCS_SIZE":"LARGE","TLE_LINE2":"2 46166  53.0537 268.2094 0001936  68.6726 291.4469 15.06409352 78705","APOAPSIS":"548.526","DECAY_DATE":null,"MEAN_MOTION_DOT":"0.00001817","MEAN_MOTION_DDOT":"0.0000000000000","EPOCH":"2022-01-16T19:21:24.808032","REV_AT_EPOCH":"7870","NORAD_CAT_ID":"46166","OBJECT_ID":"2020-057BB","BSTAR":"0.00014083000000","ECCENTRICITY":"0.00019360","MEAN_MOTION":"15.06409352","PERIOD":"95.592","SEMIMAJOR_AXIS":"6925.320","CLASSIFICATION_TYPE":"U","GP_ID":"193989427","OBJECT_NAME":"STARLINK-1615","CENTER_NAME":"EARTH"},{"INCLINATION":"53.0549","TLE_LINE1":"1 46167U 20057BC  22016.48953940  .00002444  00000-0  18284-3 0  9991","FILE":"3274671","SITE":"AFETR","EPHEMERIS_TYPE":"0","COUNTRY_CODE":"US","OBJECT_TYPE":"PAYLOAD","MEAN_ANOMALY":"296.3280","ELEMENT_SET_NO":"999","TIME_SYSTEM":"UTC","PERIAPSIS":"545.699","ARG_OF_PERICENTER":"63.7923","NORAD_CAT_ID":"46167","REV_AT_EPOCH":"7799","EPOCH":"2022-01-16T11:44:56.204160","MEAN_MOTION_DDOT":"0.0000000000000","MEAN_MOTION_DOT":"0.00002444","CENTER_NAME":"EARTH","OBJECT_NAME":"STARLINK-1626","GP_ID":"193984144","CLASSIFICATION_TYPE":"U","PERIOD":"95.591","SEMIMAJOR_AXIS":"6925.280","MEAN_MOTION":"15.06422222","OBJECT_ID":"2020-057BC","BSTAR":"0.00018284000000","ECCENTRICITY":"0.00020890","LAUNCH_DATE":"2020-08-18","REF_FRAME":"TEME","MEAN_ELEMENT_THEORY":"SGP4","RA_OF_ASC_NODE":"269.6495","DECAY_DATE":null,"TLE_LINE2":"2 46167  53.0549 269.6495 0002089  63.7923 296.3280 15.06422222 77990","APOAPSIS":"548.592","RCS_SIZE":"LARGE"}];
